AO-91
1 43017U 17073E   23243.97186932  .00005446  00000-0  37602-3 0  9992
2 43017  97.6183 125.3364 0229907 178.3709 181.8310 14.87150682312447
ISS
1 25544U 98067A   23244.90564815  .00012299  00000-0  22201-3 0  9996
2 25544  51.6431 308.4814 0005151  22.1754 318.9452 15.50138118413680
PO-101
1 43678U 18084H   23244.83119674  .00002026  00000-0  19718-3 0  9992
2 43678  98.0339  30.4046 0008158 268.3257  91.7027 14.93698707263702
SO-50
1 27607U 02058C   23244.45071642  .00001962  00000-0  28557-3 0  9999
2 27607  64.5552  31.0812 0061200 208.6904 151.0829 14.77544558113498

